0 COSMOS 1579
1 15085U 84069A   13282.48472513 -.00000084  00000-0  38371-5 0  8456
2 15085 065.0515 222.6043 0049555 197.7299 295.4541 13.85981041483818
0 COSMOS 1579
1 15085U 84069A   13284.20999735 -.00000091  00000-0 -17838-5 0  8463
2 15085 065.0517 218.1303 0049399 197.2017 263.6881 13.85981001484055
0 COSMOS 1579
1 15085U 84069A   13285.37579127 -.00000089  00000-0  23870-6 0  8472
2 15085 065.0516 215.1072 0049288 196.8084 320.4462 13.85980819484211
0 COSMOS 1579
1 15085U 84069A   13286.38252300 -.00000077  00000-0  10274-4 0  8485
2 15085 065.0517 212.4966 0049192 196.4728 303.5553 13.85980681484354
0 COSMOS 1579
1 15085U 84069A   13287.39313240 -.00000055  00000-0  29380-4 0  8493
2 15085 065.0516 209.8759 0049099 196.1526 305.9950 13.85980645484494
0 COSMOS 1579
1 15085U 84069A   13289.20108953 -.00000027  00000-0  53432-4 0  8504
2 15085 065.0514 205.1876 0048954 195.5931 326.7916 13.85980598484741
0 COSMOS 1579
1 15085U 84069A   13290.35111252 -.00000040  00000-0  42222-4 0  8519
2 15085 065.0512 202.2056 0048861 195.2445 304.8188 13.85980796484907
0 COSMOS 1579
1 15085U 84069A   13292.16092271 -.00000050  00000-0  33648-4 0  8523
2 15085 065.0509 197.5125 0048697 194.6627 334.8821 13.85981033485158
0 COSMOS 1579
1 15085U 84069A   13293.16961104 -.00000064  00000-0  21581-4 0  8533
2 15085 065.0507 194.8969 0048617 194.3215 327.7587 13.85981188485290
0 COSMOS 1579
1 15085U 84069A   13294.16975144 -.00000078  00000-0  94640-5 0  8546
2 15085 065.0507 192.3033 0048509 194.0304 277.9376 13.85981390485434
0 COSMOS 1579
1 15085U 84069A   13295.19048872 -.00000077  00000-0  10536-4 0  8550
2 15085 065.0506 189.6564 0048409 193.7041 330.9149 13.85981490485578
0 COSMOS 1579
1 15085U 84069A   13296.20239367 -.00000075  00000-0  11710-4 0  8568
2 15085 065.0505 187.0323 0048326 193.3809 339.8239 13.85981485485716
